{
  "type": "FeatureCollection",
  "features": [
    {
      "type": "Feature",
      "properties": {
        "norad_id": 66174,
        "name": "HTV-X1",
        "group": "stations",
        "lat": -37.9911923336989,
        "lon": 48.7530045842208,
        "alt_km": 419.44712850261476,
        "timestamp": "2025-12-23T22:42:31.734812+00:00",
        "meta_object_name": "HTV-X1",
        "meta_object_id": "2025-241A",
        "meta_epoch": "2025-12-23T04:21:36.091008",
        "meta_mean_motion": 15.49746572,
        "meta_eccentricity": 0.00031904,
        "meta_inclination": 51.6323,
        "meta_ra_of_asc_node": 90.7678,
        "meta_arg_of_pericenter": 289.6661,
        "meta_mean_anomaly": 70.3984,
        "meta_ephemeris_type": 0,
        "meta_classification_type": "U",
        "meta_norad_cat_id": 66174,
        "meta_element_set_no": 999,
        "meta_rev_at_epoch": 51,
        "meta_bstar": 0.00021350548,
        "meta_mean_motion_dot": 0.00011641,
        "meta_mean_motion_ddot": 0,
        "tle_line1": "1 66174U 25241A   25357.18166772  .00011641  00000+0  21351-3 0  9995",
        "tle_line2": "2 66174  51.6323  90.7678 0003190 289.6661  70.3984 15.49746572   511"
      },
      "geometry": {
        "type": "Point",
        "coordinates": [
          48.7530045842208,
          -37.9911923336989
        ]
      }
    },
    {
      "type": "Feature",
      "properties": {
        "norad_id": 66515,
        "name": "SZ-21 MODULE",
        "group": "stations",
        "lat": 0.6519500998995914,
        "lon": 126.91698164074822,
        "alt_km": 381.04246845294983,
        "timestamp": "2025-12-23T22:42:31.734831+00:00",
        "meta_object_name": "SZ-21 MODULE",
        "meta_object_id": "2025-246C",
        "meta_epoch": "2025-12-23T05:04:42.753216",
        "meta_mean_motion": 15.63016962,
        "meta_eccentricity": 0.00050368,
        "meta_inclination": 41.4769,
        "meta_ra_of_asc_node": 312.1416,
        "meta_arg_of_pericenter": 316.3209,
        "meta_mean_anomaly": 43.7232,
        "meta_ephemeris_type": 0,
        "meta_classification_type": "U",
        "meta_norad_cat_id": 66515,
        "meta_element_set_no": 999,
        "meta_rev_at_epoch": 608,
        "meta_bstar": 0.00030579963,
        "meta_mean_motion_dot": 0.00028357,
        "meta_mean_motion_ddot": 0,
        "tle_line1": "1 66515U 25246C   25357.21160594  .00028357  00000+0  30580-3 0  9995",
        "tle_line2": "2 66515  41.4769 312.1416 0005036 316.3209  43.7232 15.63016962  6086"
      },
      "geometry": {
        "type": "Point",
        "coordinates": [
          126.91698164074822,
          0.6519500998995914
        ]
      }
    },
    {
      "type": "Feature",
      "properties": {
        "norad_id": 66645,
        "name": "SHENZHOU-22",
        "group": "stations",
        "lat": 27.99634858003153,
        "lon": 91.63583206148654,
        "alt_km": 378.7649840539516,
        "timestamp": "2025-12-23T22:42:31.734851+00:00",
        "meta_object_name": "SHENZHOU-22",
        "meta_object_id": "2025-272A",
        "meta_epoch": "2025-12-23T06:45:56.635200",
        "meta_mean_motion": 15.59596422,
        "meta_eccentricity": 0.0007971,
        "meta_inclination": 41.4686,
        "meta_ra_of_asc_node": 312.6856,
        "meta_arg_of_pericenter": 124.3462,
        "meta_mean_anomaly": 235.8132,
        "meta_ephemeris_type": 0,
        "meta_classification_type": "U",
        "meta_norad_cat_id": 66645,
        "meta_element_set_no": 999,
        "meta_rev_at_epoch": 26550,
        "meta_bstar": 0.00022671035,
        "meta_mean_motion_dot": 0.00018298,
        "meta_mean_motion_ddot": 0,
        "tle_line1": "1 66645U 25272A   25357.28190550  .00018298  00000+0  22671-3 0  9995",
        "tle_line2": "2 66645  41.4686 312.6856 0007971 124.3462 235.8132 15.59596422265505"
      },
      "geometry": {
        "type": "Point",
        "coordinates": [
          91.63583206148654,
          27.99634858003153
        ]
      }
    },
    {
      "type": "Feature",
      "properties": {
        "norad_id": 66664,
        "name": "SOYUZ-MS 28",
        "group": "stations",
        "lat": -37.99119010731438,
        "lon": 48.75300819594988,
        "alt_km": 419.4471284327665,
        "timestamp": "2025-12-23T22:42:31.734868+00:00",
        "meta_object_name": "SOYUZ-MS 28",
        "meta_object_id": "2025-275A",
        "meta_epoch": "2025-12-23T04:21:36.091008",
        "meta_mean_motion": 15.49746572,
        "meta_eccentricity": 0.00031904,
        "meta_inclination": 51.6323,
        "meta_ra_of_asc_node": 90.7678,
        "meta_arg_of_pericenter": 289.6661,
        "meta_mean_anomaly": 70.3984,
        "meta_ephemeris_type": 0,
        "meta_classification_type": "U",
        "meta_norad_cat_id": 66664,
        "meta_element_set_no": 999,
        "meta_rev_at_epoch": 128,
        "meta_bstar": 0.00021350548,
        "meta_mean_motion_dot": 0.00011641,
        "meta_mean_motion_ddot": 0,
        "tle_line1": "1 66664U 25275A   25357.18166772  .00011641  00000+0  21351-3 0  9996",
        "tle_line2": "2 66664  51.6323  90.7678 0003190 289.6661  70.3984 15.49746572  1280"
      },
      "geometry": {
        "type": "Point",
        "coordinates": [
          48.75300819594988,
          -37.99119010731438
        ]
      }
    },
    {
      "type": "Feature",
      "properties": {
        "norad_id": 66906,
        "name": "1998-067XS",
        "group": "stations",
        "lat": 20.655223593663354,
        "lon": 104.19231870247845,
        "alt_km": 412.30155589558854,
        "timestamp": "2025-12-23T22:42:31.734878+00:00",
        "meta_object_name": "1998-067XS",
        "meta_object_id": "1998-067XS",
        "meta_epoch": "2025-12-22T11:01:48.942336",
        "meta_mean_motion": 15.51071617,
        "meta_eccentricity": 0.00028954,
        "meta_inclination": 51.6319,
        "meta_ra_of_asc_node": 94.197,
        "meta_arg_of_pericenter": 250.8689,
        "meta_mean_anomaly": 109.1987,
        "meta_ephemeris_type": 0,
        "meta_classification_type": "U",
        "meta_norad_cat_id": 66906,
        "meta_element_set_no": 999,
        "meta_rev_at_epoch": 312,
        "meta_bstar": 0.00051361561,
        "meta_mean_motion_dot": 0.00030106,
        "meta_mean_motion_ddot": 0,
        "tle_line1": "1 66906U 98067XS  25356.45959424  .00030106  00000+0  51362-3 0  9999",
        "tle_line2": "2 66906  51.6319  94.1970 0002895 250.8689 109.1987 15.51071617  3121"
      },
      "geometry": {
        "type": "Point",
        "coordinates": [
          104.19231870247845,
          20.655223593663354
        ]
      }
    },
    {
      "type": "Feature",
      "properties": {
        "norad_id": 66907,
        "name": "1998-067XT",
        "group": "stations",
        "lat": 51.49976983764045,
        "lon": -178.20787605061403,
        "alt_km": 403.885982835247,
        "timestamp": "2025-12-23T22:42:31.734888+00:00",
        "meta_object_name": "1998-067XT",
        "meta_object_id": "1998-067XT",
        "meta_epoch": "2025-12-22T07:41:32.890848",
        "meta_mean_motion": 15.52583192,
        "meta_eccentricity": 0.00038425,
        "meta_inclination": 51.6311,
        "meta_ra_of_asc_node": 94.7687,
        "meta_arg_of_pericenter": 286.1212,
        "meta_mean_anomaly": 73.9355,
        "meta_ephemeris_type": 0,
        "meta_classification_type": "U",
        "meta_norad_cat_id": 66907,
        "meta_element_set_no": 999,
        "meta_rev_at_epoch": 310,
        "meta_bstar": 0.0011084243,
        "meta_mean_motion_dot": 0.00069527,
        "meta_mean_motion_ddot": 0,
        "tle_line1": "1 66907U 98067XT  25356.32051957  .00069527  00000+0  11084-2 0  9995",
        "tle_line2": "2 66907  51.6311  94.7687 0003842 286.1212  73.9355 15.52583192  3104"
      },
      "geometry": {
        "type": "Point",
        "coordinates": [
          -178.20787605061403,
          51.49976983764045
        ]
      }
    },
    {
      "type": "Feature",
      "properties": {
        "norad_id": 66908,
        "name": "1998-067XU",
        "group": "stations",
        "lat": 50.76418889829918,
        "lon": -169.31047678006576,
        "alt_km": 403.8704609055367,
        "timestamp": "2025-12-23T22:42:31.734899+00:00",
        "meta_object_name": "1998-067XU",
        "meta_object_id": "1998-067XU",
        "meta_epoch": "2025-12-22T12:18:16.541280",
        "meta_mean_motion": 15.52707663,
        "meta_eccentricity": 0.00038713,
        "meta_inclination": 51.631,
        "meta_ra_of_asc_node": 93.8007,
        "meta_arg_of_pericenter": 283.9304,
        "meta_mean_anomaly": 76.1255,
        "meta_ephemeris_type": 0,
        "meta_classification_type": "U",
        "meta_norad_cat_id": 66908,
        "meta_element_set_no": 999,
        "meta_rev_at_epoch": 313,
        "meta_bstar": 0.0010107547,
        "meta_mean_motion_dot": 0.00063598,
        "meta_mean_motion_ddot": 0,
        "tle_line1": "1 66908U 98067XU  25356.51269145  .00063598  00000+0  10108-2 0  9995",
        "tle_line2": "2 66908  51.6310  93.8007 0003871 283.9304  76.1255 15.52707663  3137"
      },
      "geometry": {
        "type": "Point",
        "coordinates": [
          -169.31047678006576,
          50.76418889829918
        ]
      }
    }
  ]
}